{"type": "FeatureCollection", "features": [ {"type": "Feature", "properties": {"norad_id": 17070, "name": "POLAR BEAR", "group": "nnss", "lat": -59.25099484330899, "lon": -176.83473202998087, "alt_km": 1018.0969660990513, "timestamp": "2025-12-11T20:41:15.349726+00:00", "meta": {"OBJECT_NAME": "POLAR BEAR", "OBJECT_ID": "1986-088A", "EPOCH": "2025-12-11T12:31:24.828960", "MEAN_MOTION": 13.75250405, "ECCENTRICITY": 0.00409009, "INCLINATION": 89.6174, "RA_OF_ASC_NODE": 183.8225, "ARG_OF_PERICENTER": 122.7687, "MEAN_ANOMALY": 294.923, "EPHEMERIS_TYPE": 0, "CLASSIFICATION_TYPE": "U", "NORAD_CAT_ID": 17070, "ELEMENT_SET_NO": 999, "REV_AT_EPOCH": 95962, "BSTAR": 0.0001455934, "MEAN_MOTION_DOT": 1.52e-06, "MEAN_MOTION_DDOT": 0}, "tle": {"line1": "1 17070U 86088A   25345.52181515  .00000152  00000+0  14559-3 0  9996", "line2": "2 17070  89.6174 183.8225 0040900 122.7687 294.9230 13.75250405959629"}}, "geometry": {"type": "Point", "coordinates": [-176.83473202998087, -59.25099484330899]}}, {"type": "Feature", "properties": {"norad_id": 18361, "name": "OSCAR 27", "group": "nnss", "lat": -64.9569535463787, "lon": 80.04092162637222, "alt_km": 1069.842836722817, "timestamp": "2025-12-11T20:41:15.349736+00:00", "meta": {"OBJECT_NAME": "OSCAR 27", "OBJECT_ID": "1987-080A", "EPOCH": "2025-12-11T12:05:00.149280", "MEAN_MOTION": 13.44906405, "ECCENTRICITY": 0.01028125, "INCLINATION": 90.3742, "RA_OF_ASC_NODE": 79.2261, "ARG_OF_PERICENTER": 227.3736, "MEAN_ANOMALY": 131.871, "EPHEMERIS_TYPE": 0, "CLASSIFICATION_TYPE": "U", "NORAD_CAT_ID": 18361, "ELEMENT_SET_NO": 999, "REV_AT_EPOCH": 87540, "BSTAR": 0.00026683303, "MEAN_MOTION_DOT": 1.69e-06, "MEAN_MOTION_DDOT": 0}, "tle": {"line1": "1 18361U 87080A   25345.50347395  .00000169  00000+0  26683-3 0  9990", "line2": "2 18361  90.3742  79.2261 0102812 227.3736 131.8710 13.44906405875408"}}, "geometry": {"type": "Point", "coordinates": [80.04092162637222, -64.9569535463787]}}, {"type": "Feature", "properties": {"norad_id": 18362, "name": "OSCAR 29", "group": "nnss", "lat": -51.421355695960365, "lon": 80.16913749051922, "alt_km": 1059.1103448840086, "timestamp": "2025-12-11T20:41:15.349746+00:00", "meta": {"OBJECT_NAME": "OSCAR 29", "OBJECT_ID": "1987-080B", "EPOCH": "2025-12-11T12:04:10.033824", "MEAN_MOTION": 13.44448138, "ECCENTRICITY": 0.01038593, "INCLINATION": 90.3753, "RA_OF_ASC_NODE": 79.6849, "ARG_OF_PERICENTER": 250.7539, "MEAN_ANOMALY": 119.9162, "EPHEMERIS_TYPE": 0, "CLASSIFICATION_TYPE": "U", "NORAD_CAT_ID": 18362, "ELEMENT_SET_NO": 999, "REV_AT_EPOCH": 87493, "BSTAR": 0.00023965313, "MEAN_MOTION_DOT": 1.51e-06, "MEAN_MOTION_DDOT": 0}, "tle": {"line1": "1 18362U 87080B   25345.50289391  .00000151  00000+0  23965-3 0  9993", "line2": "2 18362  90.3753  79.6849 0103859 250.7539 119.9162 13.44448138874939"}}, "geometry": {"type": "Point", "coordinates": [80.16913749051922, -51.421355695960365]}}, {"type": "Feature", "properties": {"norad_id": 19070, "name": "OSCAR 23", "group": "nnss", "lat": 45.951303566471864, "lon": -163.30197748183292, "alt_km": 1054.8794518133964, "timestamp": "2025-12-11T20:41:15.349755+00:00", "meta": {"OBJECT_NAME": "OSCAR 23", "OBJECT_ID": "1988-033A", "EPOCH": "2025-12-11T13:33:16.801056", "MEAN_MOTION": 13.27786973, "ECCENTRICITY": 0.01894361, "INCLINATION": 90.3214, "RA_OF_ASC_NODE": 16.3563, "ARG_OF_PERICENTER": 183.1886, "MEAN_ANOMALY": 332.568, "EPHEMERIS_TYPE": 0, "CLASSIFICATION_TYPE": "U", "NORAD_CAT_ID": 19070, "ELEMENT_SET_NO": 999, "REV_AT_EPOCH": 82237, "BSTAR": 0.0002195212, "MEAN_MOTION_DOT": 1.18e-06, "MEAN_MOTION_DDOT": 0}, "tle": {"line1": "1 19070U 88033A   25345.56477779  .00000118  00000+0  21952-3 0  9991", "line2": "2 19070  90.3214  16.3563 0189436 183.1886 332.5680 13.27786973822370"}}, "geometry": {"type": "Point", "coordinates": [-163.30197748183292, 45.951303566471864]}}, {"type": "Feature", "properties": {"norad_id": 19071, "name": "OSCAR 32", "group": "nnss", "lat": -67.5204848586075, "lon": -164.28071887817163, "alt_km": 1130.3956104645413, "timestamp": "2025-12-11T20:41:15.349766+00:00", "meta": {"OBJECT_NAME": "OSCAR 32", "OBJECT_ID": "1988-033B", "EPOCH": "2025-12-11T12:48:53.210880", "MEAN_MOTION": 13.27953761, "ECCENTRICITY": 0.018826, "INCLINATION": 90.3218, "RA_OF_ASC_NODE": 16.4872, "ARG_OF_PERICENTER": 170.1405, "MEAN_ANOMALY": 307.9312, "EPHEMERIS_TYPE": 0, "CLASSIFICATION_TYPE": "U", "NORAD_CAT_ID": 19071, "ELEMENT_SET_NO": 999, "REV_AT_EPOCH": 82249, "BSTAR": 0.00014220764, "MEAN_MOTION_DOT": 8e-07, "MEAN_MOTION_DDOT": 0}, "tle": {"line1": "1 19071U 88033B   25345.53394920  .00000080  00000+0  14221-3 0  9994", "line2": "2 19071  90.3218  16.4872 0188260 170.1405 307.9312 13.27953761822498"}}, "geometry": {"type": "Point", "coordinates": [-164.28071887817163, -67.5204848586075]}}, {"type": "Feature", "properties": {"norad_id": 19223, "name": "NOVA 2", "group": "nnss", "lat": 81.2073339042292, "lon": -101.80854603019024, "alt_km": 1161.9024634707785, "timestamp": "2025-12-11T20:41:15.349775+00:00", "meta": {"OBJECT_NAME": "NOVA 2", "OBJECT_ID": "1988-052A", "EPOCH": "2025-12-11T12:59:07.787904", "MEAN_MOTION": 13.2293577, "ECCENTRICITY": 0.00306926, "INCLINATION": 89.9873, "RA_OF_ASC_NODE": 78.274, "ARG_OF_PERICENTER": 20.1827, "MEAN_ANOMALY": 350.7258, "EPHEMERIS_TYPE": 0, "CLASSIFICATION_TYPE": "U", "NORAD_CAT_ID": 19223, "ELEMENT_SET_NO": 999, "REV_AT_EPOCH": 80932, "BSTAR": 0.00020734848, "MEAN_MOTION_DOT": 9.6e-07, "MEAN_MOTION_DDOT": 0}, "tle": {"line1": "1 19223U 88052A   25345.54106236  .00000096  00000+0  20735-3 0  9990", "line2": "2 19223  89.9873  78.2740 0030692  20.1827 350.7258 13.22935770809322"}}, "geometry": {"type": "Point", "coordinates": [-101.80854603019024, 81.2073339042292]}}, {"type": "Feature", "properties": {"norad_id": 19419, "name": "OSCAR 25", "group": "nnss", "lat": 68.20826652793632, "lon": -159.6712288778476, "alt_km": 1144.0171299255444, "timestamp": "2025-12-11T20:41:15.349785+00:00", "meta": {"OBJECT_NAME": "OSCAR 25", "OBJECT_ID": "1988-074A", "EPOCH": "2025-12-11T09:26:55.870080", "MEAN_MOTION": 13.42622997, "ECCENTRICITY": 0.00943956, "INCLINATION": 90.0349, "RA_OF_ASC_NODE": 20.2398, "ARG_OF_PERICENTER": 249.7516, "MEAN_ANOMALY": 120.6748, "EPHEMERIS_TYPE": 0, "CLASSIFICATION_TYPE": "U", "NORAD_CAT_ID": 19419, "ELEMENT_SET_NO": 999, "REV_AT_EPOCH": 82622, "BSTAR": 0.00023010121, "MEAN_MOTION_DOT": 1.42e-06, "MEAN_MOTION_DDOT": 0}, "tle": {"line1": "1 19419U 88074A   25345.39370220  .00000142  00000+0  23010-3 0  9991", "line2": "2 19419  90.0349  20.2398 0094395 249.7516 120.6748 13.42622997826222"}}, "geometry": {"type": "Point", "coordinates": [-159.6712288778476, 68.20826652793632]}}, {"type": "Feature", "properties": {"norad_id": 19420, "name": "OSCAR 31", "group": "nnss", "lat": -2.755205544155705, "lon": 20.593003734637232, "alt_km": 1131.5726535248186, "timestamp": "2025-12-11T20:41:15.349795+00:00", "meta": {"OBJECT_NAME": "OSCAR 31", "OBJECT_ID": "1988-074B", "EPOCH": "2025-12-11T12:24:01.446624", "MEAN_MOTION": 13.42584413, "ECCENTRICITY": 0.00926796, "INCLINATION": 90.0364, "RA_OF_ASC_NODE": 20.59, "ARG_OF_PERICENTER": 243.4849, "MEAN_ANOMALY": 244.9549, "EPHEMERIS_TYPE": 0, "CLASSIFICATION_TYPE": "U", "NORAD_CAT_ID": 19420, "ELEMENT_SET_NO": 999, "REV_AT_EPOCH": 82634, "BSTAR": 0.00020011536, "MEAN_MOTION_DOT": 1.24e-06, "MEAN_MOTION_DDOT": 0}, "tle": {"line1": "1 19420U 88074B   25345.51668341  .00000124  00000+0  20012-3 0  9990", "line2": "2 19420  90.0364  20.5900 0092679 243.4849 244.9549 13.42584413826348"}}, "geometry": {"type": "Point", "coordinates": [20.593003734637232, -2.755205544155705]}}]}